NORAD_CAT_ID,OBJECT_NAME,OBJECT_TYPE,EPOCH,MEAN_MOTION,ECCENTRICITY,INCLINATION,RA_OF_ASC_NODE,ARG_OF_PERICENTER,MEAN_ANOMALY,BSTAR,MEAN_MOTION_DOT,MEAN_MOTION_DDOT,TLE_LINE0,TLE_LINE1,TLE_LINE2,SEMIMAJOR_AXIS,PERIOD,APOGEE,PERIGEE,DECAYED
52453.0,STARLINK-3872,PAYLOAD,2023-04-20 10:15:43,15.08844644,0.000132,53.2151,121.8837,90.4115,269.7028,5.0184e-05,5.11e-06,0.0,0 STARLINK-3872,1 52453U 22049C   23110.42758280  .00000511  00000-0  50184-4 0  9998,2 52453  53.2151 121.8837 0001320  90.4115 269.7028 15.08844644 52953,6917.866,95.437,540.644,538.818,0.0
52453.0,STARLINK-3872,PAYLOAD,2023-04-20 18:12:39,15.08841324,0.0001364,53.2151,120.3976,85.1828,274.932,2.9472e-05,1.81e-06,0.0,0 STARLINK-3872,1 52453U 22049C   23110.75878523  .00000181  00000-0  29472-4 0  9996,2 52453  53.2151 120.3976 0001364  85.1828 274.9320 15.08841324 53003,6917.876,95.437,540.685,538.798,0.0
52453.0,STARLINK-3872,PAYLOAD,2023-04-21 11:41:53,15.08837973,0.0001411,53.2151,117.1257,94.2036,265.9117,3.3742e-06,-2.34e-06,0.0,0 STARLINK-3872,1 52453U 22049C   23111.48742851 -.00000234  00000-0  33742-5 0  9997,2 52453  53.2151 117.1257 0001411  94.2036 265.9117 15.08837973 53115,6917.887,95.438,540.728,538.775,0.0
52453.0,STARLINK-3872,PAYLOAD,2023-04-22 11:32:40,15.08843503,0.0001457,53.2165,112.6646,107.3071,252.8081,3.3334e-05,2.43e-06,0.0,0 STARLINK-3872,1 52453U 22049C   23112.48102431  .00000243  00000-0  33334-4 0  9997,2 52453  53.2165 112.6646 0001457 107.3071 252.8081 15.08843503 53422,6917.87,95.437,540.743,538.727,0.0
52453.0,STARLINK-3872,PAYLOAD,2023-04-23 11:23:28,15.08837432,0.0001459,53.2165,108.2054,97.6338,262.482,5.092e-05,5.22e-06,0.0,0 STARLINK-3872,1 52453U 22049C   23113.47462976  .00000522  00000-0  50920-4 0  9990,2 52453  53.2165 108.2054 0001459  97.6338 262.4820 15.08837432 53416,6917.888,95.438,540.763,538.744,0.0
52453.0,STARLINK-3872,PAYLOAD,2023-04-24 06:28:05,15.08847094,0.0001415,53.2167,104.6378,97.9298,262.1855,6.5878e-05,7.61e-06,0.0,0 STARLINK-3872,1 52453U 22049C   23114.26950443  .00000761  00000-0  65878-4 0  9992,2 52453  53.2167 104.6378 0001415  97.9298 262.1855 15.08847094 53530,6917.859,95.437,540.703,538.745,0.0
52453.0,STARLINK-3872,PAYLOAD,2023-04-25 09:29:38,15.08818287,0.0001556,53.2171,99.5818,96.5527,263.5642,0.00037871,5.741e-05,0.0,0 STARLINK-3872,1 52453U 22049C   23115.39559013  .00005741  00000-0  37871-3 0  9999,2 52453  53.2171  99.5818 0001556  96.5527 263.5642 15.08818287 53702,6917.947,95.439,540.888,538.735,0.0
52453.0,STARLINK-3872,PAYLOAD,2023-04-26 07:45:04,15.0882452,0.00013,53.2172,95.4192,88.4042,271.7099,-0.00010062,-1.888e-05,0.0,0 STARLINK-3872,1 52453U 22049C   23116.32296659 -.00001888  00000-0 -10062-3 0  9990,2 52453  53.2172  95.4192 0001300  88.4042 271.7099 15.08824520 53841,6917.928,95.439,540.692,538.893,0.0
52453.0,STARLINK-3872,PAYLOAD,2023-04-26 15:41:59,15.08828668,0.0001213,53.217,93.932,94.9818,265.1313,-5.9064e-05,-1.227e-05,0.0,0 STARLINK-3872,1 52453U 22049C   23116.65416449 -.00001227  00000-0 -59064-4 0  9990,2 52453  53.2170  93.9320 0001213  94.9818 265.1313 15.08828668 53899,6917.915,95.438,540.619,538.941,0.0
52453.0,STARLINK-3872,PAYLOAD,2023-04-27 04:25:04,15.08836841,0.0001,53.2164,91.5531,99.5003,260.6102,-1.0541e-05,-4.55e-06,0.0,0 STARLINK-3872,1 52453U 22049C   23117.18408033 -.00000455  00000-0 -10541-4 0  9998,2 52453  53.2164  91.5531 0001000  99.5003 260.6102 15.08836841 54137,6917.89,95.438,540.447,539.063,0.0
52453.0,STARLINK-3872,PAYLOAD,2023-04-27 07:35:50,15.08837877,0.0001119,53.2171,90.9578,95.5147,264.5973,2.318e-05,8.1e-07,0.0,0 STARLINK-3872,1 52453U 22049C   23117.31655934  .00000081  00000-0  23180-4 0  9993,2 52453  53.2171  90.9578 0001119  95.5147 264.5973 15.08837877 53997,6917.887,95.438,540.526,538.978,0.0
52453.0,STARLINK-3872,PAYLOAD,2023-04-28 04:15:50,15.08843484,9.66e-05,53.2169,87.0927,94.9826,265.1276,0.00022211,3.249e-05,0.0,0 STARLINK-3872,1 52453U 22049C   23118.17767112  .00003249  00000-0  22211-3 0  9992,2 52453  53.2169  87.0927 0000966  94.9826 265.1276 15.08843484 54282,6917.87,95.437,540.403,539.066,0.0
52453.0,STARLINK-3872,PAYLOAD,2023-04-28 15:23:33,15.08840733,8.47e-05,53.2167,85.0126,85.8372,274.2717,0.00014811,2.07e-05,0.0,0 STARLINK-3872,1 52453U 22049C   23118.64135532  .00002070  00000-0  14811-3 0  9997,2 52453  53.2167  85.0126 0000847  85.8372 274.2717 15.08840733 54355,6917.878,95.438,540.329,539.157,0.0
52453.0,STARLINK-3872,PAYLOAD,2023-04-29 07:17:24,15.08846815,9.47e-05,53.2172,82.0372,102.9912,257.1186,6.9862e-06,-1.77e-06,0.0,0 STARLINK-3872,1 52453U 22049C   23119.30375488 -.00000177  00000-0  69862-5 0  9992,2 52453  53.2172  82.0372 0000947 102.9912 257.1186 15.08846815 54293,6917.86,95.437,540.38,539.069,0.0
52453.0,STARLINK-3872,PAYLOAD,2023-04-30 00:46:39,15.08844428,8.06e-05,53.2178,78.7691,66.0599,294.0477,-0.00011025,-2.042e-05,0.0,0 STARLINK-3872,1 52453U 22049C   23120.03239997 -.00002042  00000-0 -11025-3 0  9998,2 52453  53.2178  78.7691 0000806  66.0599 294.0477 15.08844428 54561,6917.867,95.437,540.289,539.174,0.0
52453.0,STARLINK-3872,PAYLOAD,2023-04-30 07:08:11,15.08849428,8.89e-05,53.2173,77.5771,90.0699,270.0395,-6.7862e-05,-1.368e-05,0.0,0 STARLINK-3872,1 52453U 22049C   23120.29735382 -.00001368  00000-0 -67862-4 0  9996,2 52453  53.2173  77.5771 0000889  90.0699 270.0395 15.08849428 54604,6917.852,95.437,540.332,539.102,0.0
52453.0,STARLINK-3872,PAYLOAD,2023-05-01 03:48:12,15.08837556,0.0001049,53.2181,73.7091,109.7712,250.3393,5.0217e-06,-2.08e-06,0.0,0 STARLINK-3872,1 52453U 22049C   23121.15847979 -.00000208  00000-0  50217-5 0  9996,2 52453  53.2181  73.7091 0001049 109.7712 250.3393 15.08837556 54731,6917.888,95.438,540.479,539.027,0.0
52453.0,STARLINK-3872,PAYLOAD,2023-05-01 06:58:58,15.08838124,0.0001055,53.2181,73.1143,109.9369,250.1737,8.8865e-06,-1.46e-06,0.0,0 STARLINK-3872,1 52453U 22049C   23121.29095942 -.00000146  00000-0  88865-5 0  9997,2 52453  53.2181  73.1143 0001055 109.9369 250.1737 15.08838124 54596,6917.886,95.438,540.481,539.021,0.0
52453.0,STARLINK-3872,PAYLOAD,2023-05-02 06:49:45,15.08844202,8.68e-05,53.2176,68.6561,89.0557,271.0535,5.4576e-05,5.81e-06,0.0,0 STARLINK-3872,1 52453U 22049C   23122.28455713  .00000581  00000-0  54576-4 0  9996,2 52453  53.2176  68.6561 0000868  89.0557 271.0535 15.08844202 54908,6917.868,95.437,540.333,539.132,0.0
52453.0,STARLINK-3872,PAYLOAD,2023-05-02 13:11:18,15.08842757,8.67e-05,53.2177,67.4667,85.4026,274.7066,4.642e-05,4.51e-06,0.0,0 STARLINK-3872,1 52453U 22049C   23122.54951751  .00000451  00000-0  46420-4 0  9993,2 52453  53.2177  67.4667 0000867  85.4026 274.7066 15.08842757 54781,6917.872,95.437,540.337,539.137,0.0
52453.0,STARLINK-3872,PAYLOAD,2023-05-02 19:32:51,15.08836542,9.73e-05,53.2173,66.2783,92.5082,267.6022,8.1751e-05,1.013e-05,0.0,0 STARLINK-3872,1 52453U 22049C   23122.81448147  .00001013  00000-0  81751-4 0  9994,2 52453  53.2173  66.2783 0000973  92.5082 267.6022 15.08836542 54982,6917.891,95.438,540.429,539.083,0.0
52453.0,STARLINK-3872,PAYLOAD,2023-05-02 21:08:14,15.08822525,0.0001095,53.2182,65.9802,105.8392,254.2721,0.0001846,2.65e-05,0.0,0 STARLINK-3872,1 52453U 22049C   23122.88072500  .00002650  00000-0  18460-3 0  9991,2 52453  53.2182  65.9802 0001095 105.8392 254.2721 15.08822525 54836,6917.934,95.439,540.556,539.041,0.0
52453.0,STARLINK-3872,PAYLOAD,2023-05-03 06:40:32,15.08845887,9.18e-05,53.2187,64.1966,94.2495,265.8602,4.9718e-05,5.04e-06,0.0,0 STARLINK-3872,1 52453U 22049C   23123.27815703  .00000504  00000-0  49718-4 0  9992,2 52453  53.2187  64.1966 0000918  94.2495 265.8602 15.08845887 55058,6917.862,95.437,540.362,539.092,0.0
52453.0,STARLINK-3872,PAYLOAD,2023-05-04 04:55:56,15.08843604,0.0001005,53.2178,60.0333,84.7071,275.4036,2.3021e-05,7.9e-07,0.0,0 STARLINK-3872,1 52453U 22049C   23124.20552008  .00000079  00000-0  23021-4 0  9998,2 52453  53.2178  60.0333 0001005  84.7071 275.4036 15.08843604 55191,6917.869,95.437,540.43,539.039,0.0
52453.0,STARLINK-3872,PAYLOAD,2023-05-04 06:31:19,15.08847017,0.0001005,53.2177,59.7354,87.3186,272.7921,4.1409e-05,3.71e-06,0.0,0 STARLINK-3872,1 52453U 22049C   23124.27175690  .00000371  00000-0  41409-4 0  9998,2 52453  53.2177  59.7354 0001005  87.3186 272.7921 15.08847017 55043,6917.859,95.437,540.419,539.029,0.0
52453.0,STARLINK-3872,PAYLOAD,2023-05-05 04:46:43,15.08845522,0.0001051,53.2174,55.5711,93.1615,266.9497,5.8638e-05,6.46e-06,0.0,0 STARLINK-3872,1 52453U 22049C   23125.19911641  .00000646  00000-0  58638-4 0  9991,2 52453  53.2174  55.5711 0001051  93.1615 266.9497 15.08845522 55181,6917.864,95.437,540.456,539.001,0.0
52453.0,STARLINK-3872,PAYLOAD,2023-05-06 01:26:45,15.08838772,0.0001065,53.2169,51.706,100.1983,259.913,-4.4319e-05,-9.93e-06,0.0,0 STARLINK-3872,1 52453U 22049C   23126.06024480 -.00000993  00000-0 -44319-4 0  9992,2 52453  53.2169  51.7060 0001065 100.1983 259.9130 15.08838772 55479,6917.884,95.438,540.486,539.012,0.0
52453.0,STARLINK-3872,PAYLOAD,2023-05-06 04:37:31,15.08841163,0.0001102,53.2177,51.1111,95.3509,264.7609,-4.9562e-06,-3.67e-06,0.0,0 STARLINK-3872,1 52453U 22049C   23126.19272323 -.00000367  00000-0 -49562-5 0  9998,2 52453  53.2177  51.1111 0001102  95.3509 264.7609 15.08841163 55338,6917.877,95.437,540.504,538.979,0.0
52453.0,STARLINK-3872,PAYLOAD,2023-05-07 01:17:31,15.08847601,0.0001031,53.2176,47.2464,87.549,272.5621,0.00015997,2.26e-05,0.0,0 STARLINK-3872,1 52453U 22049C   23127.05383384  .00002260  00000-0  15997-3 0  9999,2 52453  53.2176  47.2464 0001031  87.5490 272.5621 15.08847601 55623,6917.857,95.437,540.435,539.009,0.0
52453.0,STARLINK-3872,PAYLOAD,2023-05-07 21:57:33,15.08835757,0.000121,53.2177,43.3799,110.656,249.4562,3.3513e-06,-2.35e-06,0.0,0 STARLINK-3872,1 52453U 22049C   23127.91496766 -.00000235  00000-0  33513-5 0  9990,2 52453  53.2177  43.3799 0001210 110.6560 249.4562 15.08835757 55599,6917.893,95.438,540.595,538.921,0.0
